COMMENT,ORIGINATOR,NORAD_CAT_ID,OBJECT_NAME,OBJECT_TYPE,CLASSIFICATION_TYPE,INTLDES,EPOCH,EPOCH_MICROSECONDS,MEAN_MOTION,ECCENTRICITY,INCLINATION,RA_OF_ASC_NODE,ARG_OF_PERICENTER,MEAN_ANOMALY,EPHEMERIS_TYPE,ELEMENT_SET_NO,REV_AT_EPOCH,BSTAR,MEAN_MOTION_DOT,MEAN_MOTION_DDOT,FILE,TLE_LINE0,TLE_LINE1,TLE_LINE2,OBJECT_ID,OBJECT_NUMBER,SEMIMAJOR_AXIS,PERIOD,APOGEE,PERIGEE,DECAYED
GENERATED VIA SPACETRACK.ORG API,18 SPCS,58292,UMBRA-08,PAYLOAD,U,23174AN,2024-03-06 18:44:57,41664,15.08954223,0.0002288,97.4655,142.3806,105.7744,254.3737,0,999,1814,0.0012423,0.00019593,0,4212721,0 UMBRA-08,1 58292U 23174AN  24066.78121576  .00019593  00000-0  12423-2 0  9999,2 58292  97.4655 142.3806 0002288 105.7744 254.3737 15.08954223 18140,2023-174AN,58292,6917.531,95.430,540.979,537.814,1
GENERATED VIA SPACETRACK.ORG API,18 SPCS,58292,UMBRA-08,PAYLOAD,U,23174AN,2024-03-08 18:29:48,988032,15.0886621,0.0003178,97.465,144.3151,101.755,258.4036,0,999,1844,0.0011201,0.00017614,0,4215105,0 UMBRA-08,1 58292U 23174AN  24068.77070588  .00017614  00000-0  11201-2 0  9991,2 58292  97.4650 144.3151 0003178 101.7550 258.4036 15.08866210 18448,2023-174AN,58292,6917.800,95.436,541.864,537.467,1
GENERATED VIA SPACETRACK.ORG API,18 SPCS,58292,UMBRA-08,PAYLOAD,U,23174AN,2024-03-08 18:29:48,988032,15.0886621,0.0003178,97.465,144.3151,101.755,258.4036,0,999,1844,0.0011201,0.00017614,0,4215142,0 UMBRA-08,1 58292U 23174AN  24068.77070588  .00017614  00000-0  11201-2 0  9991,2 58292  97.4650 144.3151 0003178 101.7550 258.4036 15.08866210 18448,2023-174AN,58292,6917.800,95.436,541.864,537.467,1
GENERATED VIA SPACETRACK.ORG API,18 SPCS,58292,UMBRA-08,PAYLOAD,U,23174AN,2024-03-10 10:17:18,705408,15.08781751,0.0003315,97.4642,145.9272,100.964,259.1962,0,999,1869,0.0011451,0.00017968,0,4218257,0 UMBRA-08,1 58292U 23174AN  24070.42868872  .00017968  00000-0  11451-2 0  9996,2 58292  97.4642 145.9272 0003315 100.9640 259.1962 15.08781751 18693,2023-174AN,58292,6918.058,95.441,542.217,537.630,1
GENERATED VIA SPACETRACK.ORG API,18 SPCS,58292,UMBRA-08,PAYLOAD,U,23174AN,2024-03-10 15:03:48,937536,15.0878932,0.0003311,97.4642,146.1206,100.6569,259.5032,0,999,1872,0.0011345,0.00017804,0,4218857,0 UMBRA-08,1 58292U 23174AN  24070.62764974  .00017804  00000-0  11345-2 0  9997,2 58292  97.4642 146.1206 0003311 100.6569 259.5032 15.08789320 18722,2023-174AN,58292,6918.035,95.441,542.191,537.610,1
GENERATED VIA SPACETRACK.ORG API,18 SPCS,58292,UMBRA-08,PAYLOAD,U,23174AN,2024-03-10 15:03:48,937536,15.0878932,0.0003311,97.4642,146.1206,100.6569,259.5032,0,999,1872,0.0011345,0.00017804,0,4218864,0 UMBRA-08,1 58292U 23174AN  24070.62764974  .00017804  00000-0  11345-2 0  9997,2 58292  97.4642 146.1206 0003311 100.6569 259.5032 15.08789320 18722,2023-174AN,58292,6918.035,95.441,542.191,537.610,1
GENERATED VIA SPACETRACK.ORG API,18 SPCS,58292,UMBRA-08,PAYLOAD,U,23174AN,2024-03-11 11:45:21,62304,15.08747585,0.0003033,97.4618,146.957,90.3905,269.7672,0,999,1885,0.0011101,0.00017399,0,4220029,0 UMBRA-08,1 58292U 23174AN  24071.48982711  .00017399  00000-0  11101-2 0  9992,2 58292  97.4618 146.9570 0003033  90.3905 269.7672 15.08747585 18851,2023-174AN,58292,6918.163,95.443,542.126,537.930,1
GENERATED VIA SPACETRACK.ORG API,18 SPCS,58292,UMBRA-08,PAYLOAD,U,23174AN,2024-03-12 00:29:22,682688,15.08761871,0.0002458,97.4652,147.4745,93.714,266.437,0,999,1893,0.0010537,0.00016515,0,4222103,0 UMBRA-08,1 58292U 23174AN  24072.02040142  .00016515  00000-0  10537-2 0  9997,2 58292  97.4652 147.4745 0002458  93.7140 266.4370 15.08761871 18939,2023-174AN,58292,6918.119,95.442,541.685,538.284,1
GENERATED VIA SPACETRACK.ORG API,18 SPCS,58292,UMBRA-08,PAYLOAD,U,23174AN,2024-03-12 00:29:22,682688,15.08761871,0.0002458,97.4652,147.4745,93.714,266.437,0,999,1893,0.0010537,0.00016515,0,4222836,0 UMBRA-08,1 58292U 23174AN  24072.02040142  .00016515  00000-0  10537-2 0  9997,2 58292  97.4652 147.4745 0002458  93.7140 266.4370 15.08761871 18939,2023-174AN,58292,6918.119,95.442,541.685,538.284,1
GENERATED VIA SPACETRACK.ORG API,18 SPCS,58292,UMBRA-08,PAYLOAD,U,23174AN,2024-03-14 00:14:47,753952,15.0854359,0.0001594,97.4645,149.4089,83.4244,276.7166,0,999,1923,0.0011179,0.00017423,0,4224509,0 UMBRA-08,1 58292U 23174AN  24074.01027493  .00017423  00000-0  11179-2 0  9994,2 58292  97.4645 149.4089 0001594  83.4244 276.7166 15.08543590 19232,2023-174AN,58292,6918.787,95.456,541.754,539.549,1
GENERATED VIA SPACETRACK.ORG API,18 SPCS,58292,UMBRA-08,PAYLOAD,U,23174AN,2024-03-14 00:14:47,753952,15.0854359,0.0001594,97.4645,149.4089,83.4244,276.7166,0,999,1923,0.0011179,0.00017423,0,4225152,0 UMBRA-08,1 58292U 23174AN  24074.01027493  .00017423  00000-0  11179-2 0  9994,2 58292  97.4645 149.4089 0001594  83.4244 276.7166 15.08543590 19232,2023-174AN,58292,6918.787,95.456,541.754,539.549,1
GENERATED VIA SPACETRACK.ORG API,18 SPCS,58292,UMBRA-08,PAYLOAD,U,23174AN,2024-03-14 11:23:28,301568,15.08387932,0.0001546,97.4644,149.858,110.4422,249.6973,0,999,1930,0.0011256,0.00017469,0,4225552,0 UMBRA-08,1 58292U 23174AN  24074.47463312  .00017469  00000-0  11256-2 0  9994,2 58292  97.4644 149.8580 0001546 110.4422 249.6973 15.08387932 19306,2023-174AN,58292,6919.263,95.466,542.197,540.058,1
GENERATED VIA SPACETRACK.ORG API,18 SPCS,58292,UMBRA-08,PAYLOAD,U,23174AN,2024-03-14 11:23:28,301568,15.08387932,0.0001546,97.4644,149.858,110.4422,249.6973,0,999,1930,0.0011256,0.00017469,0,4225645,0 UMBRA-08,1 58292U 23174AN  24074.47463312  .00017469  00000-0  11256-2 0  9994,2 58292  97.4644 149.8580 0001546 110.4422 249.6973 15.08387932 19306,2023-174AN,58292,6919.263,95.466,542.197,540.058,1
GENERATED VIA SPACETRACK.ORG API,18 SPCS,58292,UMBRA-08,PAYLOAD,U,23174AN,2024-03-15 04:54:16,85376,15.08392193,0.0006005,97.4702,150.5832,131.408,228.7665,0,999,1941,0.0010865,0.00016867,0,4226767,0 UMBRA-08,1 58292U 23174AN  24075.20435284  .00016867  00000-0  10865-2 0  9999,2 58292  97.4702 150.5832 0006005 131.4080 228.7665 15.08392193 19411,2023-174AN,58292,6919.249,95.466,545.270,536.959,1
GENERATED VIA SPACETRACK.ORG API,18 SPCS,58292,UMBRA-08,PAYLOAD,U,23174AN,2024-03-15 04:54:16,85376,15.08392193,0.0006005,97.4702,150.5832,131.408,228.7665,0,999,1941,0.0010865,0.00016867,0,4227250,0 UMBRA-08,1 58292U 23174AN  24075.20435284  .00016867  00000-0  10865-2 0  9999,2 58292  97.4702 150.5832 0006005 131.4080 228.7665 15.08392193 19411,2023-174AN,58292,6919.249,95.466,545.270,536.959,1
GENERATED VIA SPACETRACK.ORG API,18 SPCS,58292,UMBRA-08,PAYLOAD,U,23174AN,2024-03-18 10:55:16,594752,15.08151961,0.0001822,97.4636,153.7288,83.1246,277.019,0,999,1990,0.00088185,0.00013578,0,4232157,0 UMBRA-08,1 58292U 23174AN  24078.45505318  .00013578  00000-0  88185-3 0  9992,2 58292  97.4636 153.7288 0001822  83.1246 277.0190 15.08151961 19906,2023-174AN,58292,6919.984,95.481,543.110,540.588,1
GENERATED VIA SPACETRACK.ORG API,18 SPCS,58292,UMBRA-08,PAYLOAD,U,23174AN,2024-03-18 10:55:16,594752,15.08151961,0.0001822,97.4636,153.7288,83.1246,277.019,0,999,1990,0.00088185,0.00013578,0,4232179,0 UMBRA-08,1 58292U 23174AN  24078.45505318  .00013578  00000-0  88185-3 0  9992,2 58292  97.4636 153.7288 0001822  83.1246 277.0190 15.08151961 19906,2023-174AN,58292,6919.984,95.481,543.110,540.588,1
GENERATED VIA SPACETRACK.ORG API,18 SPCS,58292,UMBRA-08,PAYLOAD,U,23174AN,2024-03-20 13:52:04,70496,15.0846598,0.0000684,97.4628,155.7927,106.3895,253.7409,0,999,2022,0.0017866,0.00027862,0,4235412,0 UMBRA-08,1 58292U 23174AN  24080.57782489  .00027862  00000-0  17866-2 0  9992,2 58292  97.4628 155.7927 0000684 106.3895 253.7409 15.08465980 20222,2023-174AN,58292,6919.024,95.461,541.362,540.416,1
GENERATED VIA SPACETRACK.ORG API,18 SPCS,58292,UMBRA-08,PAYLOAD,U,23174AN,2024-03-20 13:52:04,70496,15.0846598,0.0000684,97.4628,155.7927,106.3895,253.7409,0,999,2022,0.0017866,0.00027862,0,4235427,0 UMBRA-08,1 58292U 23174AN  24080.57782489  .00027862  00000-0  17866-2 0  9992,2 58292  97.4628 155.7927 0000684 106.3895 253.7409 15.08465980 20222,2023-174AN,58292,6919.024,95.461,541.362,540.416,1
GENERATED VIA SPACETRACK.ORG API,18 SPCS,58292,UMBRA-08,PAYLOAD,U,23174AN,2024-03-22 04:04:31,69056,15.08561667,0.0001141,97.463,157.3404,128.2638,231.8694,0,999,2046,0.0023212,0.00036356,0,4238588,0 UMBRA-08,1 58292U 23174AN  24082.16980404  .00036356  00000-0  23212-2 0  9996,2 58292  97.4630 157.3404 0001141 128.2638 231.8694 15.08561667 20468,2023-174AN,58292,6918.731,95.455,541.386,539.807,1
GENERATED VIA SPACETRACK.ORG API,18 SPCS,58292,UMBRA-08,PAYLOAD,U,23174AN,2024-03-22 18:24:08,786304,15.0859967,0.0000643,97.463,157.9188,141.3565,218.7709,0,999,2055,0.001932,0.00030255,0,4239120,0 UMBRA-08,1 58292U 23174AN  24082.76676836  .00030255  00000-0  19320-2 0  9990,2 58292  97.4630 157.9188 0000643 141.3565 218.7709 15.08599670 20550,2023-174AN,58292,6918.615,95.453,540.925,540.035,1
GENERATED VIA SPACETRACK.ORG API,18 SPCS,58292,UMBRA-08,PAYLOAD,U,23174AN,2024-03-22 18:24:08,786304,15.0859967,0.0000643,97.463,157.9188,141.3565,218.7709,0,999,2055,0.001932,0.00030255,0,4239209,0 UMBRA-08,1 58292U 23174AN  24082.76676836  .00030255  00000-0  19320-2 0  9990,2 58292  97.4630 157.9188 0000643 141.3565 218.7709 15.08599670 20550,2023-174AN,58292,6918.615,95.453,540.925,540.035,1
GENERATED VIA SPACETRACK.ORG API,18 SPCS,58292,UMBRA-08,PAYLOAD,U,23174AN,2024-03-23 18:16:48,289728,15.08680734,0.0000298,97.462,158.8852,354.6543,5.4683,0,999,2070,0.0026425,0.00041561,0,4241074,0 UMBRA-08,1 58292U 23174AN  24083.76167002  .00041561  00000-0  26425-2 0  9997,2 58292  97.4620 158.8852 0000298 354.6543   5.4683 15.08680734 20709,2023-174AN,58292,6918.367,95.448,540.438,540.026,1
GENERATED VIA SPACETRACK.ORG API,18 SPCS,58292,UMBRA-08,PAYLOAD,U,23174AN,2024-03-23 18:16:48,289728,15.08680734,0.0000298,97.462,158.8852,354.6543,5.4683,0,999,2070,0.0026425,0.00041561,0,4241084,0 UMBRA-08,1 58292U 23174AN  24083.76167002  .00041561  00000-0  26425-2 0  9997,2 58292  97.4620 158.8852 0000298 354.6543   5.4683 15.08680734 20709,2023-174AN,58292,6918.367,95.448,540.438,540.026,1
